start=new Date('2022-11-20T00:00:00.000Z').valueOf();
sats=[{"MEAN_MOTION_DOT":"-0.00000318","CENTER_NAME":"EARTH","SITE":"AFETR","TLE_LINE1":"1 53169U 22083AP  22323.82341064 -.00000318  00000-0 -18427-5 0  9990","FILE":"3663561","LAUNCH_DATE":"2022-07-17","EPHEMERIS_TYPE":"0","SEMIMAJOR_AXIS":"6917.890","PERIOD":"95.438","PERIAPSIS":"538.370","OBJECT_NAME":"STARLINK-4117","REF_FRAME":"TEME","ECCENTRICITY":"0.00020020","INCLINATION":"53.2143","TIME_SYSTEM":"UTC","OBJECT_TYPE":"PAYLOAD","MEAN_MOTION_DDOT":"0.0000000000000","ARG_OF_PERICENTER":"53.6158","MEAN_MOTION":"15.08837009","CLASSIFICATION_TYPE":"U","RA_OF_ASC_NODE":"162.4637","ELEMENT_SET_NO":"999","APOAPSIS":"541.139","EPOCH":"2022-11-19T19:45:42.679296","NORAD_CAT_ID":"53169","BSTAR":"-0.00000184270000","TLE_LINE2":"2 53169  53.2143 162.4637 0002002  53.6158 306.5019 15.08837009 19516","MEAN_ANOMALY":"306.5019","COUNTRY_CODE":"US","REV_AT_EPOCH":"1951","DECAY_DATE":null,"OBJECT_ID":"2022-083AP","MEAN_ELEMENT_THEORY":"SGP4","GP_ID":"218239691","RCS_SIZE":"LARGE"},{"MEAN_MOTION_DOT":"-0.00001743","CENTER_NAME":"EARTH","SITE":"AFETR","FILE":"3663561","TLE_LINE1":"1 53170U 22083AQ  22323.88874129 -.00001743  00000-0 -91449-4 0  9998","LAUNCH_DATE":"2022-07-17","PERIOD":"95.438","SEMIMAJOR_AXIS":"6917.915","EPHEMERIS_TYPE":"0","OBJECT_NAME":"STARLINK-4095","PERIAPSIS":"538.449","INCLINATION":"53.2147","REF_FRAME":"TEME","ECCENTRICITY":"0.00019240","OBJECT_TYPE":"PAYLOAD","TIME_SYSTEM":"UTC","MEAN_MOTION_DDOT":"0.0000000000000","ARG_OF_PERICENTER":"49.5990","MEAN_MOTION":"15.08828615","RA_OF_ASC_NODE":"172.1668","CLASSIFICATION_TYPE":"U","ELEMENT_SET_NO":"999","TLE_LINE2":"2 53170  53.2147 172.1668 0001924  49.5990 310.5170 15.08828615 19396","APOAPSIS":"541.111","EPOCH":"2022-11-19T21:19:47.247456","BSTAR":"-0.00009144900000","NORAD_CAT_ID":"53170","COUNTRY_CODE":"US","MEAN_ANOMALY":"310.5170","GP_ID":"218238550","MEAN_ELEMENT_THEORY":"SGP4","RCS_SIZE":"LARGE","REV_AT_EPOCH":"1939","OBJECT_ID":"2022-083AQ","DECAY_DATE":null},{"MEAN_MOTION":"15.44474385","ARG_OF_PERICENTER":"108.1067","RA_OF_ASC_NODE":"153.3764","CLASSIFICATION_TYPE":"U","MEAN_MOTION_DDOT":"0.0000000000000","COUNTRY_CODE":"US","MEAN_ANOMALY":"252.0048","RCS_SIZE":"LARGE","GP_ID":"218172822","MEAN_ELEMENT_THEORY":"SGP4","DECAY_DATE":null,"OBJECT_ID":"2022-083AR","REV_AT_EPOCH":"2019","ELEMENT_SET_NO":"999","TLE_LINE2":"2 53171  53.2110 153.3764 0000981 108.1067 252.0048 15.44474385 20199","BSTAR":"-0.00648380000000","NORAD_CAT_ID":"53171","EPOCH":"2022-11-18T19:47:36.735936","APOAPSIS":"433.593","FILE":"3662868","TLE_LINE1":"1 53171U 22083AR  22322.82473074 -.00294131  00000-0 -64838-2 0  9991","LAUNCH_DATE":"2022-07-17","MEAN_MOTION_DOT":"-0.00294131","CENTER_NAME":"EARTH","SITE":"AFETR","INCLINATION":"53.2110","ECCENTRICITY":"0.00009810","REF_FRAME":"TEME","OBJECT_TYPE":"PAYLOAD","TIME_SYSTEM":"UTC","PERIOD":"93.236","EPHEMERIS_TYPE":"0","SEMIMAJOR_AXIS":"6811.060","OBJECT_NAME":"STARLINK-4052","PERIAPSIS":"432.257"},{"MEAN_MOTION_DDOT":"0.0000000000000","MEAN_MOTION":"15.08843973","ARG_OF_PERICENTER":"57.0165","RA_OF_ASC_NODE":"172.1791","CLASSIFICATION_TYPE":"U","ELEMENT_SET_NO":"999","TLE_LINE2":"2 53172  53.2160 172.1791 0001957  57.0165 303.1015 15.08843973 19383","NORAD_CAT_ID":"53172","BSTAR":"0.00015813000000","EPOCH":"2022-11-19T21:14:27.743712","APOAPSIS":"541.087","COUNTRY_CODE":"US","MEAN_ANOMALY":"303.1015","RCS_SIZE":"LARGE","GP_ID":"218239531","MEAN_ELEMENT_THEORY":"SGP4","DECAY_DATE":null,"OBJECT_ID":"2022-083AS","REV_AT_EPOCH":"1938","MEAN_MOTION_DOT":"0.00002230","CENTER_NAME":"EARTH","SITE":"AFETR","FILE":"3663561","TLE_LINE1":"1 53172U 22083AS  22323.88504333  .00002230  00000-0  15813-3 0  9997","LAUNCH_DATE":"2022-07-17","PERIOD":"95.437","EPHEMERIS_TYPE":"0","SEMIMAJOR_AXIS":"6917.868","OBJECT_NAME":"STARLINK-4299","PERIAPSIS":"538.379","INCLINATION":"53.2160","ECCENTRICITY":"0.00019570","REF_FRAME":"TEME","OBJECT_TYPE":"PAYLOAD","TIME_SYSTEM":"UTC"},{"COUNTRY_CODE":"US","MEAN_ANOMALY":"354.0448","RCS_SIZE":"LARGE","GP_ID":"218210217","MEAN_ELEMENT_THEORY":"SGP4","DECAY_DATE":null,"OBJECT_ID":"2022-083AT","REV_AT_EPOCH":"2030","ELEMENT_SET_NO":"999","TLE_LINE2":"2 53173  53.2159 152.0894 0001343  89.1832 354.0448 15.13694893 20309","NORAD_CAT_ID":"53173","BSTAR":"-0.06291700000000","EPOCH":"2022-11-19T22:00:00.999936","APOAPSIS":"525.873","MEAN_MOTION":"15.13694893","ARG_OF_PERICENTER":"89.1832","RA_OF_ASC_NODE":"152.0894","CLASSIFICATION_TYPE":"U","MEAN_MOTION_DDOT":"0.0000000000000","INCLINATION":"53.2159","ECCENTRICITY":"0.00013430","REF_FRAME":"TEME","OBJECT_TYPE":"PAYLOAD","TIME_SYSTEM":"UTC","PERIOD":"95.131","SEMIMAJOR_AXIS":"6903.081","EPHEMERIS_TYPE":"0","OBJECT_NAME":"STARLINK-4300","PERIAPSIS":"524.019","FILE":"3663397","TLE_LINE1":"1 53173U 22083AT  22323.91667824 -.01061956  00000-0 -62917-1 0  9995","LAUNCH_DATE":"2022-07-17","CENTER_NAME":"EARTH","MEAN_MOTION_DOT":"-0.01061956","SITE":"AFETR"},{"TIME_SYSTEM":"UTC","OBJECT_TYPE":"PAYLOAD","ECCENTRICITY":"0.00014060","REF_FRAME":"TEME","INCLINATION":"53.2177","PERIAPSIS":"538.827","OBJECT_NAME":"STARLINK-4205","EPHEMERIS_TYPE":"0","SEMIMAJOR_AXIS":"6917.935","PERIOD":"95.439","LAUNCH_DATE":"2022-07-17","TLE_LINE1":"1 53174U 22083AU  22323.66007246  .00000646  00000-0  58682-4 0  9997","FILE":"3663561","SITE":"AFETR","MEAN_MOTION_DOT":"0.00000646","CENTER_NAME":"EARTH","DECAY_DATE":null,"OBJECT_ID":"2022-083AU","REV_AT_EPOCH":"1914","RCS_SIZE":"LARGE","GP_ID":"218238894","MEAN_ELEMENT_THEORY":"SGP4","MEAN_ANOMALY":"308.0371","COUNTRY_CODE":"US","BSTAR":"0.00005868200000","NORAD_CAT_ID":"53174","EPOCH":"2022-11-19T15:50:30.260544","APOAPSIS":"540.772","TLE_LINE2":"2 53174  53.2177 188.1938 0001406  52.0748 308.0371 15.08822274 19148","ELEMENT_SET_NO":"999","CLASSIFICATION_TYPE":"U","RA_OF_ASC_NODE":"188.1938","MEAN_MOTION":"15.08822274","ARG_OF_PERICENTER":"52.0748","MEAN_MOTION_DDOT":"0.0000000000000"},{"RA_OF_ASC_NODE":"188.2146","CLASSIFICATION_TYPE":"U","ARG_OF_PERICENTER":"41.5233","MEAN_MOTION":"15.08848703","MEAN_MOTION_DDOT":"0.0000000000000","GP_ID":"218238716","MEAN_ELEMENT_THEORY":"SGP4","RCS_SIZE":"LARGE","REV_AT_EPOCH":"1914","OBJECT_ID":"2022-083AV","DECAY_DATE":null,"COUNTRY_CODE":"US","MEAN_ANOMALY":"318.5928","TLE_LINE2":"2 53175  53.2189 188.2146 0002238  41.5233 318.5928 15.08848703 19149","EPOCH":"2022-11-19T15:45:12.046752","APOAPSIS":"541.267","BSTAR":"0.00005794300000","NORAD_CAT_ID":"53175","ELEMENT_SET_NO":"999","LAUNCH_DATE":"2022-07-17","FILE":"3663561","TLE_LINE1":"1 53175U 22083AV  22323.65638943  .00000634  00000-0  57943-4 0  9997","SITE":"AFETR","MEAN_MOTION_DOT":"0.00000634","CENTER_NAME":"EARTH","OBJECT_TYPE":"PAYLOAD","TIME_SYSTEM":"UTC","INCLINATION":"53.2189","REF_FRAME":"TEME","ECCENTRICITY":"0.00022380","OBJECT_NAME":"STARLINK-4292","PERIAPSIS":"538.171","PERIOD":"95.437","EPHEMERIS_TYPE":"0","SEMIMAJOR_AXIS":"6917.854"},{"MEAN_MOTION":"15.08842382","ARG_OF_PERICENTER":"53.6582","CLASSIFICATION_TYPE":"U","RA_OF_ASC_NODE":"166.1172","MEAN_MOTION_DDOT":"0.0000000000000","MEAN_ANOMALY":"306.4609","COUNTRY_CODE":"US","OBJECT_ID":"2022-083AW","DECAY_DATE":null,"REV_AT_EPOCH":"1939","RCS_SIZE":"LARGE","MEAN_ELEMENT_THEORY":"SGP4","GP_ID":"218207946","ELEMENT_SET_NO":"999","BSTAR":"0.00005778600000","NORAD_CAT_ID":"53176","APOAPSIS":"541.231","EPOCH":"2022-11-19T00:09:17.004384","TLE_LINE2":"2 53176  53.2165 166.1172 0002158  53.6582 306.4609 15.08842382 19396","TLE_LINE1":"1 53176U 22083AW  22323.00644681  .00000632  00000-0  57786-4 0  9996","FILE":"3663316","LAUNCH_DATE":"2022-07-17","MEAN_MOTION_DOT":"0.00000632","CENTER_NAME":"EARTH","SITE":"AFETR","ECCENTRICITY":"0.00021580","REF_FRAME":"TEME","INCLINATION":"53.2165","TIME_SYSTEM":"UTC","OBJECT_TYPE":"PAYLOAD","EPHEMERIS_TYPE":"0","SEMIMAJOR_AXIS":"6917.873","PERIOD":"95.437","PERIAPSIS":"538.245","OBJECT_NAME":"STARLINK-4294"},{"ARG_OF_PERICENTER":"108.7586","MEAN_MOTION":"15.14305730","RA_OF_ASC_NODE":"152.0946","CLASSIFICATION_TYPE":"U","MEAN_MOTION_DDOT":"0.0000000000000","COUNTRY_CODE":"US","MEAN_ANOMALY":"9.6446","MEAN_ELEMENT_THEORY":"SGP4","GP_ID":"218210705","RCS_SIZE":"LARGE","REV_AT_EPOCH":"2030","OBJECT_ID":"2022-083AX","DECAY_DATE":null,"ELEMENT_SET_NO":"999","TLE_LINE2":"2 53177  53.2163 152.0946 0001344 108.7586   9.6446 15.14305730 20302","APOAPSIS":"524.017","EPOCH":"2022-11-19T22:00:00.999936","BSTAR":"-0.06360000000000","NORAD_CAT_ID":"53177","FILE":"3663397","TLE_LINE1":"1 53177U 22083AX  22323.91667824 -.01089987  00000-0 -63600-1 0  9993","LAUNCH_DATE":"2022-07-17","MEAN_MOTION_DOT":"-0.01089987","CENTER_NAME":"EARTH","SITE":"AFETR","INCLINATION":"53.2163","REF_FRAME":"TEME","ECCENTRICITY":"0.00013440","OBJECT_TYPE":"PAYLOAD","TIME_SYSTEM":"UTC","PERIOD":"95.093","SEMIMAJOR_AXIS":"6901.224","EPHEMERIS_TYPE":"0","OBJECT_NAME":"STARLINK-4298","PERIAPSIS":"522.162"},{"SITE":"AFETR","CENTER_NAME":"EARTH","MEAN_MOTION_DOT":"0.00001295","LAUNCH_DATE":"2022-07-17","TLE_LINE1":"1 53178U 22083AY  22323.78243283  .00001295  00000-0  99471-4 0  9999","FILE":"3663561","PERIAPSIS":"537.889","OBJECT_NAME":"STARLINK-4280","SEMIMAJOR_AXIS":"6917.874","EPHEMERIS_TYPE":"0","PERIOD":"95.437","TIME_SYSTEM":"UTC","OBJECT_TYPE":"PAYLOAD","REF_FRAME":"TEME","ECCENTRICITY":"0.00026740","INCLINATION":"53.2160","MEAN_MOTION_DDOT":"0.0000000000000","CLASSIFICATION_TYPE":"U","RA_OF_ASC_NODE":"177.6416","ARG_OF_PERICENTER":"34.7853","MEAN_MOTION":"15.08842010","APOAPSIS":"541.589","EPOCH":"2022-11-19T18:46:42.196512","NORAD_CAT_ID":"53178","BSTAR":"0.00009947100000","TLE_LINE2":"2 53178  53.2160 177.6416 0002674  34.7853 325.3313 15.08842010 19294","ELEMENT_SET_NO":"999","REV_AT_EPOCH":"1929","DECAY_DATE":null,"OBJECT_ID":"2022-083AY","GP_ID":"218238551","MEAN_ELEMENT_THEORY":"SGP4","RCS_SIZE":"LARGE","MEAN_ANOMALY":"325.3313","COUNTRY_CODE":"US"}];
